[
    {
        "Altitude(m)": 564215.204930896,
        "Argument of Periapsis(deg)": 0.006622991110713501,
        "Eccentricity": 0.0,
        "Inclination(deg)": 53.0,
        "Latitude(deg)": -34.344478634226796,
        "Longitude(deg)": 5.029723754494677,
        "Mean Anomaly(deg)": -135.36290713242238,
        "RAAN(deg)": 254.99014336852804,
        "Satellite Name": "Starlink Shell 1 1135",
        "Satellite Number": 1135,
        "Semi-Major Axis(m)": 6931778.249405717,
        "Time(s)": 190
    },
    {
        "Altitude(m)": 564388.487446539,
        "Argument of Periapsis(deg)": 0.0069715695902247375,
        "Eccentricity": 0.0,
        "Inclination(deg)": 53.0,
        "Latitude(deg)": -34.77378102208697,
        "Longitude(deg)": 5.541329721514889,
        "Mean Anomaly(deg)": -134.73607592886566,
        "RAAN(deg)": 254.98962459845058,
        "Satellite Name": "Starlink Shell 1 1135",
        "Satellite Number": 1135,
        "Semi-Major Axis(m)": 6931778.249405717,
        "Time(s)": 200
    },
    {
        "Altitude(m)": 564561.2159724548,
        "Argument of Periapsis(deg)": 0.007320148069735974,
        "Eccentricity": 0.0,
        "Inclination(deg)": 53.0,
        "Latitude(deg)": -35.200504886012055,
        "Longitude(deg)": 6.0586545404570815,
        "Mean Anomaly(deg)": -134.109244725309,
        "RAAN(deg)": 254.98910582837308,
        "Satellite Name": "Starlink Shell 1 1135",
        "Satellite Number": 1135,
        "Semi-Major Axis(m)": 6931778.249405717,
        "Time(s)": 210
    },
    {
        "Altitude(m)": 564733.3243403011,
        "Argument of Periapsis(deg)": 0.007668726549247212,
        "Eccentricity": 0.0,
        "Inclination(deg)": 53.0,
        "Latitude(deg)": -35.62458362815268,
        "Longitude(deg)": 6.58181456976299,
        "Mean Anomaly(deg)": -133.48241352175222,
        "RAAN(deg)": 254.9885870582956,
        "Satellite Name": "Starlink Shell 1 1135",
        "Satellite Number": 1135,
        "Semi-Major Axis(m)": 6931778.249405717,
        "Time(s)": 220
    },
    {
        "Altitude(m)": 564904.7465127786,
        "Argument of Periapsis(deg)": 0.00801730502875845,
        "Eccentricity": 0.0,
        "Inclination(deg)": 53.0,
        "Latitude(deg)": -36.04594912260335,
        "Longitude(deg)": 7.110926880994445,
        "Mean Anomaly(deg)": -132.8555823181956,
        "RAAN(deg)": 254.9880682882182,
        "Satellite Name": "Starlink Shell 1 1135",
        "Satellite Number": 1135,
        "Semi-Major Axis(m)": 6931778.249405717,
        "Time(s)": 230
    },
    {
        "Altitude(m)": 565075.4166130846,
        "Argument of Periapsis(deg)": 0.008365883508269684,
        "Eccentricity": 0.0,
        "Inclination(deg)": 53.0,
        "Latitude(deg)": -36.46453168469488,
        "Longitude(deg)": 7.646109669053057,
        "Mean Anomaly(deg)": -132.2287511146388,
        "RAAN(deg)": 254.98754951814067,
        "Satellite Name": "Starlink Shell 1 1135",
        "Satellite Number": 1135,
        "Semi-Major Axis(m)": 6931778.249405717,
        "Time(s)": 240
    },
    {
        "Altitude(m)": 565245.2689543022,
        "Argument of Periapsis(deg)": 0.008714461987780921,
        "Eccentricity": 0.0,
        "Inclination(deg)": 53.0,
        "Latitude(deg)": -36.880260040978804,
        "Longitude(deg)": 8.187481139928657,
        "Mean Anomaly(deg)": -131.60191991108215,
        "RAAN(deg)": 254.98703074806318,
        "Satellite Name": "Starlink Shell 1 1135",
        "Satellite Number": 1135,
        "Semi-Major Axis(m)": 6931778.249405717,
        "Time(s)": 250
    },
    {
        "Altitude(m)": 565414.2380686969,
        "Argument of Periapsis(deg)": 0.009063040467292158,
        "Eccentricity": 0.0,
        "Inclination(deg)": 53.0,
        "Latitude(deg)": -37.29306130004394,
        "Longitude(deg)": 8.735159901164865,
        "Mean Anomaly(deg)": -130.9750887075254,
        "RAAN(deg)": 254.98651197798574,
        "Satellite Name": "Starlink Shell 1 1135",
        "Satellite Number": 1135,
        "Semi-Major Axis(m)": 6931778.249405717,
        "Time(s)": 260
    },
    {
        "Altitude(m)": 565582.2587368785,
        "Argument of Periapsis(deg)": 0.009411618946803396,
        "Eccentricity": 0.0,
        "Inclination(deg)": 53.0,
        "Latitude(deg)": -37.70286092432098,
        "Longitude(deg)": 9.289265341594177,
        "Mean Anomaly(deg)": -130.34825750396874,
        "RAAN(deg)": 254.98599320790828,
        "Satellite Name": "Starlink Shell 1 1135",
        "Satellite Number": 1135,
        "Semi-Major Axis(m)": 6931778.249405717,
        "Time(s)": 270
    },
    {
        "Altitude(m)": 565749.2660168528,
        "Argument of Periapsis(deg)": 0.009760197426314633,
        "Eccentricity": 0.0,
        "Inclination(deg)": 53.0,
        "Latitude(deg)": -38.1095827030484,
        "Longitude(deg)": 9.849916486888775,
        "Mean Anomaly(deg)": -129.72142630041196,
        "RAAN(deg)": 254.9854744378308,
        "Satellite Name": "Starlink Shell 1 1135",
        "Satellite Number": 1135,
        "Semi-Major Axis(m)": 6931778.249405717,
        "Time(s)": 280
    },
    {
        "Altitude(m)": 565915.1952729137,
        "Argument of Periapsis(deg)": 0.01010877590582587,
        "Eccentricity": 0.0,
        "Inclination(deg)": 53.0,
        "Latitude(deg)": -38.51314872657274,
        "Longitude(deg)": 10.417232356077779,
        "Mean Anomaly(deg)": -129.09459509685524,
        "RAAN(deg)": 254.98495566775333,
        "Satellite Name": "Starlink Shell 1 1135",
        "Satellite Number": 1135,
        "Semi-Major Axis(m)": 6931778.249405717,
        "Time(s)": 290
    },
    {
        "Altitude(m)": 566079.9822044137,
        "Argument of Periapsis(deg)": 0.010457354385337106,
        "Eccentricity": 0.0,
        "Inclination(deg)": 53.0,
        "Latitude(deg)": -38.91347936218338,
        "Longitude(deg)": 10.991332305562711,
        "Mean Anomaly(deg)": -128.46776389329855,
        "RAAN(deg)": 254.98443689767583,
        "Satellite Name": "Starlink Shell 1 1135",
        "Satellite Number": 1135,
        "Semi-Major Axis(m)": 6931778.249405717,
        "Time(s)": 300
    },
    {
        "Altitude(m)": 566243.5628743304,
        "Argument of Periapsis(deg)": 0.010805932864848343,
        "Eccentricity": 0.0,
        "Inclination(deg)": 53.0,
        "Latitude(deg)": -39.31049323169124,
        "Longitude(deg)": 11.572334847156094,
        "Mean Anomaly(deg)": -127.84093268974189,
        "RAAN(deg)": 254.98391812759834,
        "Satellite Name": "Starlink Shell 1 1135",
        "Satellite Number": 1135,
        "Semi-Major Axis(m)": 6931778.249405717,
        "Time(s)": 310
    },
    {
        "Altitude(m)": 566405.8737376942,
        "Argument of Periapsis(deg)": 0.01115451134435958,
        "Eccentricity": 0.0,
        "Inclination(deg)": 53.0,
        "Latitude(deg)": -39.70410719097033,
        "Longitude(deg)": 12.160357965291869,
        "Mean Anomaly(deg)": -127.21410148618504,
        "RAAN(deg)": 254.9833993575209,
        "Satellite Name": "Starlink Shell 1 1135",
        "Satellite Number": 1135,
        "Semi-Major Axis(m)": 6931778.249405717,
        "Time(s)": 320
    },
    {
        "Altitude(m)": 566566.8516697809,
        "Argument of Periapsis(deg)": 0.011503089823870818,
        "Eccentricity": 0.0,
        "Inclination(deg)": 53.0,
        "Latitude(deg)": -40.09423631170252,
        "Longitude(deg)": 12.75551941994213,
        "Mean Anomaly(deg)": -126.58727028262838,
        "RAAN(deg)": 254.98288058744342,
        "Satellite Name": "Starlink Shell 1 1135",
        "Satellite Number": 1135,
        "Semi-Major Axis(m)": 6931778.249405717,
        "Time(s)": 330
    },
    {
        "Altitude(m)": 566726.4339941338,
        "Argument of Periapsis(deg)": 0.011851668303382053,
        "Eccentricity": 0.0,
        "Inclination(deg)": 53.0,
        "Latitude(deg)": -40.48079386558334,
        "Longitude(deg)": 13.357935521791905,
        "Mean Anomaly(deg)": -125.9604390790717,
        "RAAN(deg)": 254.98236181736593,
        "Satellite Name": "Starlink Shell 1 1135",
        "Satellite Number": 1135,
        "Semi-Major Axis(m)": 6931778.249405717,
        "Time(s)": 340
    },
    {
        "Altitude(m)": 566884.5585103657,
        "Argument of Periapsis(deg)": 0.012200246782893292,
        "Eccentricity": 0.0,
        "Inclination(deg)": 53.0,
        "Latitude(deg)": -40.863691311249916,
        "Longitude(deg)": 13.967721404851067,
        "Mean Anomaly(deg)": -125.33360787551499,
        "RAAN(deg)": 254.98184304728852,
        "Satellite Name": "Starlink Shell 1 1135",
        "Satellite Number": 1135,
        "Semi-Major Axis(m)": 6931778.249405717,
        "Time(s)": 350
    },
    {
        "Altitude(m)": 567041.1635217166,
        "Argument of Periapsis(deg)": 0.012548825262404526,
        "Eccentricity": 0.0,
        "Inclination(deg)": 53.0,
        "Latitude(deg)": -41.242838284220575,
        "Longitude(deg)": 14.584991283099304,
        "Mean Anomaly(deg)": -124.70677667195821,
        "RAAN(deg)": 254.981324277211,
        "Satellite Name": "Starlink Shell 1 1135",
        "Satellite Number": 1135,
        "Semi-Major Axis(m)": 6931778.249405717,
        "Time(s)": 360
    },
    {
        "Altitude(m)": 567196.1878623847,
        "Argument of Periapsis(deg)": 0.012897403741915765,
        "Eccentricity": 0.0,
        "Inclination(deg)": 53.0,
        "Latitude(deg)": -41.618142590147706,
        "Longitude(deg)": 15.209857177785631,
        "Mean Anomaly(deg)": -124.0799454684015,
        "RAAN(deg)": 254.9808055071335,
        "Satellite Name": "Starlink Shell 1 1135",
        "Satellite Number": 1135,
        "Semi-Major Axis(m)": 6931778.249405717,
        "Time(s)": 370
    }
]